[
    {
        "Altitude(m)": 610399.5315787393,
        "Argument of Periapsis(deg)": 0.0,
        "Eccentricity": 0.0,
        "Inclination(deg)": 60.0,
        "Latitude(deg)": 52.11134250498551,
        "Longitude(deg)": -162.41557562185983,
        "Mean Anomaly(deg)": 65.45449999999998,
        "RAAN(deg)": 250.00000000000003,
        "Satellite Name": "Test1 1104",
        "Satellite Number": 1104,
        "Semi-Major Axis(m)": 6980739.136638005,
        "Time(s)": 0
    },
    {
        "Altitude(m)": 610481.6821985614,
        "Argument of Periapsis(deg)": 0.00010418945913296404,
        "Eccentricity": 0.0,
        "Inclination(deg)": 60.0,
        "Latitude(deg)": 52.47094349237295,
        "Longitude(deg)": -161.63343773165923,
        "Mean Anomaly(deg)": 66.07460614546183,
        "RAAN(deg)": 249.99957995086027,
        "Satellite Name": "Test1 1104",
        "Satellite Number": 1104,
        "Semi-Major Axis(m)": 6980739.136638005,
        "Time(s)": 10
    },
    {
        "Altitude(m)": 610562.3716281095,
        "Argument of Periapsis(deg)": 0.0002083789182659281,
        "Eccentricity": 0.0,
        "Inclination(deg)": 60.0,
        "Latitude(deg)": 52.82469705372892,
        "Longitude(deg)": -160.8378868513166,
        "Mean Anomaly(deg)": 66.69471229092363,
        "RAAN(deg)": 249.99915990172053,
        "Satellite Name": "Test1 1104",
        "Satellite Number": 1104,
        "Semi-Major Axis(m)": 6980739.136638005,
        "Time(s)": 20
    },
    {
        "Altitude(m)": 610641.5524016501,
        "Argument of Periapsis(deg)": 0.00031256837739889213,
        "Eccentricity": 0.0,
        "Inclination(deg)": 60.0,
        "Latitude(deg)": 53.172433661953704,
        "Longitude(deg)": -160.0287584734188,
        "Mean Anomaly(deg)": 67.3148184363855,
        "RAAN(deg)": 249.99873985258083,
        "Satellite Name": "Test1 1104",
        "Satellite Number": 1104,
        "Semi-Major Axis(m)": 6980739.136638005,
        "Time(s)": 30
    },
    {
        "Altitude(m)": 610719.1780099148,
        "Argument of Periapsis(deg)": 0.0004167578365318562,
        "Eccentricity": 0.0,
        "Inclination(deg)": 60.0,
        "Latitude(deg)": 53.513980314077244,
        "Longitude(deg)": -159.2058997032582,
        "Mean Anomaly(deg)": 67.93492458184728,
        "RAAN(deg)": 249.99831980344106,
        "Satellite Name": "Test1 1104",
        "Satellite Number": 1104,
        "Semi-Major Axis(m)": 6980739.136638005,
        "Time(s)": 40
    },
    {
        "Altitude(m)": 610795.2029224142,
        "Argument of Periapsis(deg)": 0.0005209472956648203,
        "Eccentricity": 0.0,
        "Inclination(deg)": 60.0,
        "Latitude(deg)": 53.84916065322987,
        "Longitude(deg)": -158.36917167302087,
        "Mean Anomaly(deg)": 68.55503072730914,
        "RAAN(deg)": 249.99789975430133,
        "Satellite Name": "Test1 1104",
        "Satellite Number": 1104,
        "Semi-Major Axis(m)": 6980739.136638005,
        "Time(s)": 50
    },
    {
        "Altitude(m)": 610869.5826092743,
        "Argument of Periapsis(deg)": 0.0006251367547977843,
        "Eccentricity": 0.0,
        "Inclination(deg)": 60.0,
        "Latitude(deg)": 54.17779511493494,
        "Longitude(deg)": -157.51845050874618,
        "Mean Anomaly(deg)": 69.175136872771,
        "RAAN(deg)": 249.99747970516157,
        "Satellite Name": "Test1 1104",
        "Satellite Number": 1104,
        "Semi-Major Axis(m)": 6980739.136638005,
        "Time(s)": 60
    },
    {
        "Altitude(m)": 610942.2735625634,
        "Argument of Periapsis(deg)": 0.0007293262139307483,
        "Eccentricity": 0.0,
        "Inclination(deg)": 60.0,
        "Latitude(deg)": 54.49970109939074,
        "Longitude(deg)": -156.6536283586234,
        "Mean Anomaly(deg)": 69.79524301823281,
        "RAAN(deg)": 249.99705965602186,
        "Satellite Name": "Test1 1104",
        "Satellite Number": 1104,
        "Semi-Major Axis(m)": 6980739.136638005,
        "Time(s)": 70
    },
    {
        "Altitude(m)": 611013.2333171122,
        "Argument of Periapsis(deg)": 0.0008335156730637124,
        "Eccentricity": 0.0,
        "Inclination(deg)": 60.0,
        "Latitude(deg)": 54.81469317136893,
        "Longitude(deg)": -155.77461598988134,
        "Mean Anomaly(deg)": 70.41534916369464,
        "RAAN(deg)": 249.9966396068821,
        "Satellite Name": "Test1 1104",
        "Satellite Number": 1104,
        "Semi-Major Axis(m)": 6980739.136638005,
        "Time(s)": 80
    },
    {
        "Altitude(m)": 611082.4204708175,
        "Argument of Periapsis(deg)": 0.0009377051321966765,
        "Eccentricity": 0.0,
        "Inclination(deg)": 60.0,
        "Latitude(deg)": 55.12258328928196,
        "Longitude(deg)": -154.88134392148143,
        "Mean Anomaly(deg)": 71.03545530915646,
        "RAAN(deg)": 249.9962195577423,
        "Satellite Name": "Test1 1104",
        "Satellite Number": 1104,
        "Semi-Major Axis(m)": 6980739.136638005,
        "Time(s)": 90
    },
    {
        "Altitude(m)": 611149.7947044175,
        "Argument of Periapsis(deg)": 0.0010418945913296407,
        "Eccentricity": 0.0,
        "Inclination(deg)": 60.0,
        "Latitude(deg)": 55.42318106488403,
        "Longitude(deg)": -153.97376359689565,
        "Mean Anomaly(deg)": 71.65556145461831,
        "RAAN(deg)": 249.99579950860257,
        "Satellite Name": "Test1 1104",
        "Satellite Number": 1104,
        "Semi-Major Axis(m)": 6980739.136638005,
        "Time(s)": 100
    },
    {
        "Altitude(m)": 611215.3168007478,
        "Argument of Periapsis(deg)": 0.0011460840504626045,
        "Eccentricity": 0.0,
        "Inclination(deg)": 60.0,
        "Latitude(deg)": 55.716294054935304,
        "Longitude(deg)": -153.05185009961812,
        "Mean Anomaly(deg)": 72.27566760008011,
        "RAAN(deg)": 249.9953794594629,
        "Satellite Name": "Test1 1104",
        "Satellite Number": 1104,
        "Semi-Major Axis(m)": 6980739.136638005,
        "Time(s)": 110
    },
    {
        "Altitude(m)": 611278.9486634262,
        "Argument of Periapsis(deg)": 0.0012502735095955685,
        "Eccentricity": 0.0,
        "Inclination(deg)": 60.0,
        "Latitude(deg)": 56.001728085983295,
        "Longitude(deg)": -152.11560337371517,
        "Mean Anomaly(deg)": 72.89577374554196,
        "RAAN(deg)": 249.9949594103231,
        "Satellite Name": "Test1 1104",
        "Satellite Number": 1104,
        "Semi-Major Axis(m)": 6980739.136638005,
        "Time(s)": 120
    },
    {
        "Altitude(m)": 611340.6533350148,
        "Argument of Periapsis(deg)": 0.0013544629687285324,
        "Eccentricity": 0.0,
        "Inclination(deg)": 60.0,
        "Latitude(deg)": 56.27928761321117,
        "Longitude(deg)": -151.16504944856783,
        "Mean Anomaly(deg)": 73.51587989100376,
        "RAAN(deg)": 249.99453936118334,
        "Satellite Name": "Test1 1104",
        "Satellite Number": 1104,
        "Semi-Major Axis(m)": 6980739.136638005,
        "Time(s)": 130
    },
    {
        "Altitude(m)": 611400.3950146311,
        "Argument of Periapsis(deg)": 0.0014586524278614966,
        "Eccentricity": 0.0,
        "Inclination(deg)": 60.0,
        "Latitude(deg)": 56.54877611404965,
        "Longitude(deg)": -150.20024316515165,
        "Mean Anomaly(deg)": 74.13598603646562,
        "RAAN(deg)": 249.9941193120436,
        "Satellite Name": "Test1 1104",
        "Satellite Number": 1104,
        "Semi-Major Axis(m)": 6980739.136638005,
        "Time(s)": 140
    },
    {
        "Altitude(m)": 611458.1390749527,
        "Argument of Periapsis(deg)": 0.0015628418869944607,
        "Eccentricity": 0.0,
        "Inclination(deg)": 60.0,
        "Latitude(deg)": 56.809996516942434,
        "Longitude(deg)": -149.22126936079644,
        "Mean Anomaly(deg)": 74.75609218192743,
        "RAAN(deg)": 249.99369926290387,
        "Satellite Name": "Test1 1104",
        "Satellite Number": 1104,
        "Semi-Major Axis(m)": 6980739.136638005,
        "Time(s)": 150
    },
    {
        "Altitude(m)": 611513.8520786993,
        "Argument of Periapsis(deg)": 0.0016670313461274247,
        "Eccentricity": 0.0,
        "Inclination(deg)": 60.0,
        "Latitude(deg)": 57.06275166531877,
        "Longitude(deg)": -148.22824400624086,
        "Mean Anomaly(deg)": 75.37619832738928,
        "RAAN(deg)": 249.99327921376414,
        "Satellite Name": "Test1 1104",
        "Satellite Number": 1104,
        "Semi-Major Axis(m)": 6980739.136638005,
        "Time(s)": 160
    },
    {
        "Altitude(m)": 611567.5017945184,
        "Argument of Periapsis(deg)": 0.0017712208052603888,
        "Eccentricity": 0.0,
        "Inclination(deg)": 60.0,
        "Latitude(deg)": 57.30684481643655,
        "Longitude(deg)": -147.2213167871586,
        "Mean Anomaly(deg)": 75.99630447285112,
        "RAAN(deg)": 249.99285916462438,
        "Satellite Name": "Test1 1104",
        "Satellite Number": 1104,
        "Semi-Major Axis(m)": 6980739.136638005,
        "Time(s)": 170
    },
    {
        "Altitude(m)": 611619.0572122865,
        "Argument of Periapsis(deg)": 0.001875410264393353,
        "Eccentricity": 0.0,
        "Inclination(deg)": 60.0,
        "Latitude(deg)": 57.54208017431765,
        "Longitude(deg)": -146.20067208223685,
        "Mean Anomaly(deg)": 76.61641061831293,
        "RAAN(deg)": 249.99243911548464,
        "Satellite Name": "Test1 1104",
        "Satellite Number": 1104,
        "Semi-Major Axis(m)": 6980739.136638005,
        "Time(s)": 180
    },
    {
        "Altitude(m)": 611668.4885578047,
        "Argument of Periapsis(deg)": 0.0019795997235263173,
        "Eccentricity": 0.0,
        "Inclination(deg)": 60.0,
        "Latitude(deg)": 57.76826345552837,
        "Longitude(deg)": -145.16652982722994,
        "Mean Anomaly(deg)": 77.23651676377479,
        "RAAN(deg)": 249.9920190663449,
        "Satellite Name": "Test1 1104",
        "Satellite Number": 1104,
        "Semi-Major Axis(m)": 6980739.136638005,
        "Time(s)": 190
    }
]